PANDORA
1 67395U 80229J   26104.70785880  .00000000  00000-0  37770-3 0    07
2 67395  97.8056 104.3548 0004817 358.4031  91.8584 14.87975974    02
